CCSDS_OMM_VERS = 2.0
CREATION_DATE  = 
ORIGINATOR     = 

OBJECT_NAME    = LEMUR-2-BAXTER-OLIVER
OBJECT_ID      = 1998-067RV
CENTER_NAME    = EARTH
REF_FRAME      = TEME
TIME_SYSTEM    = UTC
MEAN_ELEMENT_THEORY = SGP/SGP4

EPOCH          = 2020-12-14T01:55:46.063200
MEAN_MOTION    = 15.51749970
ECCENTRICITY   = .0002742
INCLINATION    = 51.6410
RA_OF_ASC_NODE = 177.8811
ARG_OF_PERICENTER = 160.7495
MEAN_ANOMALY   = 199.3599

EPHEMERIS_TYPE = 0
CLASSIFICATION_TYPE = U
NORAD_CAT_ID   = 46925
ELEMENT_SET_NO = 999
REV_AT_EPOCH   = 602
BSTAR          = .15678E-3
MEAN_MOTION_DOT = .9069E-4
MEAN_MOTION_DDOT = 0

CCSDS_OMM_VERS = 2.0
CREATION_DATE  = 
ORIGINATOR     = 

OBJECT_NAME    = LEMUR-2-DJARA
OBJECT_ID      = 1998-067RW
CENTER_NAME    = EARTH
REF_FRAME      = TEME
TIME_SYSTEM    = UTC
MEAN_ELEMENT_THEORY = SGP/SGP4

EPOCH          = 2020-12-14T00:26:11.613408
MEAN_MOTION    = 15.51609563
ECCENTRICITY   = .0002236
INCLINATION    = 51.6409
RA_OF_ASC_NODE = 178.2157
ARG_OF_PERICENTER = 144.4826
MEAN_ANOMALY   = 215.6313

EPHEMERIS_TYPE = 0
CLASSIFICATION_TYPE = U
NORAD_CAT_ID   = 46926
ELEMENT_SET_NO = 999
REV_AT_EPOCH   = 603
BSTAR          = .34392E-3
MEAN_MOTION_DOT = .20374E-3
MEAN_MOTION_DDOT = 0

CCSDS_OMM_VERS = 2.0
CREATION_DATE  = 
ORIGINATOR     = 

OBJECT_NAME    = DESCENT
OBJECT_ID      = 1998-067RX
CENTER_NAME    = EARTH
REF_FRAME      = TEME
TIME_SYSTEM    = UTC
MEAN_ELEMENT_THEORY = SGP/SGP4

EPOCH          = 2020-12-14T17:40:29.014752
MEAN_MOTION    = 15.50803540
ECCENTRICITY   = .0002868
INCLINATION    = 51.6406
RA_OF_ASC_NODE = 174.7612
ARG_OF_PERICENTER = 144.6997
MEAN_ANOMALY   = 215.4182

EPHEMERIS_TYPE = 0
CLASSIFICATION_TYPE = U
NORAD_CAT_ID   = 46927
ELEMENT_SET_NO = 999
REV_AT_EPOCH   = 609
BSTAR          = .14695E-3
MEAN_MOTION_DOT = .8178E-4
MEAN_MOTION_DDOT = 0

CCSDS_OMM_VERS = 2.0
CREATION_DATE  = 
ORIGINATOR     = 

OBJECT_NAME    = DRAGON CRS-21
OBJECT_ID      = 2020-093A
CENTER_NAME    = EARTH
REF_FRAME      = TEME
TIME_SYSTEM    = UTC
MEAN_ELEMENT_THEORY = SGP/SGP4

EPOCH          = 2020-12-13T13:11:59.194752
MEAN_MOTION    = 15.49180997
ECCENTRICITY   = .0001783
INCLINATION    = 51.6445
RA_OF_ASC_NODE = 180.9789
ARG_OF_PERICENTER = 128.1963
MEAN_ANOMALY   = 279.5916

EPHEMERIS_TYPE = 0
CLASSIFICATION_TYPE = U
NORAD_CAT_ID   = 47233
ELEMENT_SET_NO = 999
REV_AT_EPOCH   = 107
BSTAR          = .25206E-4
MEAN_MOTION_DOT = .948E-5
MEAN_MOTION_DDOT = 0

