LEMUR-2-BAXTER-OLIVER   
1 46925U 98067RV  20349.08039425  .00009069  00000-0  15678-3 0  9999
2 46925  51.6410 177.8811 0002742 160.7495 199.3599 15.51749970  6026
LEMUR-2-DJARA           
1 46926U 98067RW  20349.01818997  .00020374  00000-0  34392-3 0  9998
2 46926  51.6409 178.2157 0002236 144.4826 215.6313 15.51609563  6038
DESCENT                 
1 46927U 98067RX  20349.73644693  .00008178  00000-0  14695-3 0  9990
2 46927  51.6406 174.7612 0002868 144.6997 215.4182 15.50803540  6093
DRAGON CRS-21           
1 47233U 20093A   20348.54999068  .00000948  00000-0  25206-4 0  9990
2 47233  51.6445 180.9789 0001783 128.1963 279.5916 15.49180997  1077
